{"type": "FeatureCollection", "features": [{"type": "Feature", "properties": {"norad_id": 26766, "name": "INTELSAT 10 (IS-10)", "group": "intelsat", "lat": 4.666348724121858, "lon": 93.60788507734446, "alt_km": 36156.34651189278, "timestamp": "2025-12-09T14:52:25.833352+00:00", "meta": {"OBJECT_NAME": "INTELSAT 10 (IS-10)", "OBJECT_ID": "2001-019A", "EPOCH": "2025-12-08T12:50:38.847840", "MEAN_MOTION": 0.99078973, "ECCENTRICITY": 0.0007853, "INCLINATION": 8.6199, "RA_OF_ASC_NODE": 61.1985, "ARG_OF_PERICENTER": 221.9209, "MEAN_ANOMALY": 143.9126, "EPHEMERIS_TYPE": 0, "CLASSIFICATION_TYPE": "U", "NORAD_CAT_ID": 26766, "ELEMENT_SET_NO": 999, "REV_AT_EPOCH": 4369, "BSTAR": 0, "MEAN_MOTION_DOT": -2.74e-06, "MEAN_MOTION_DDOT": 0}, "tle": {"line1": "1 26766U 01019A   25342.53517185 -.00000274  00000+0  00000+0 0  9991", "line2": "2 26766   8.6199  61.1985 0007853 221.9209 143.9126  0.99078973 43690"}}, "geometry": {"type": "Point", "coordinates": [93.60788507734446, 4.666348724121858]}}, {"type": "Feature", "properties": {"norad_id": 26900, "name": "INTELSAT 902 (IS-902)", "group": "intelsat", "lat": 0.23302548172651555, "lon": -108.45743977990017, "alt_km": 35769.090891804975, "timestamp": "2025-12-09T14:52:25.833376+00:00", "meta": {"OBJECT_NAME": "INTELSAT 902 (IS-902)", "OBJECT_ID": "2001-039A", "EPOCH": "2025-12-01T16:59:59.311968", "MEAN_MOTION": 1.00270327, "ECCENTRICITY": 0.00043097, "INCLINATION": 5.6187, "RA_OF_ASC_NODE": 74.2002, "ARG_OF_PERICENTER": 175.119, "MEAN_ANOMALY": 26.3816, "EPHEMERIS_TYPE": 0, "CLASSIFICATION_TYPE": "U", "NORAD_CAT_ID": 26900, "ELEMENT_SET_NO": 999, "REV_AT_EPOCH": 8871, "BSTAR": 0, "MEAN_MOTION_DOT": -2.63e-06, "MEAN_MOTION_DDOT": 0}, "tle": {"line1": "1 26900U 01039A   25335.70832537 -.00000263  00000+0  00000+0 0  9993", "line2": "2 26900   5.6187  74.2002 0004309 175.1190  26.3816  1.00270327 88713"}}, "geometry": {"type": "Point", "coordinates": [-108.45743977990017, 0.23302548172651555]}}, {"type": "Feature", "properties": {"norad_id": 27380, "name": "INTELSAT 904 (IS-904)", "group": "intelsat", "lat": -2.0825432980514296, "lon": -89.94482956566985, "alt_km": 35780.75357821944, "timestamp": "2025-12-09T14:52:25.833393+00:00", "meta": {"OBJECT_NAME": "INTELSAT 904 (IS-904)", "OBJECT_ID": "2002-007A", "EPOCH": "2025-12-08T15:09:58.269024", "MEAN_MOTION": 1.00268358, "ECCENTRICITY": 0.0001612, "INCLINATION": 6.4433, "RA_OF_ASC_NODE": 71.4765, "ARG_OF_PERICENTER": 211.5706, "MEAN_ANOMALY": 350.5417, "EPHEMERIS_TYPE": 0, "CLASSIFICATION_TYPE": "U", "NORAD_CAT_ID": 27380, "ELEMENT_SET_NO": 999, "REV_AT_EPOCH": 8717, "BSTAR": 0, "MEAN_MOTION_DOT": -2.26e-06, "MEAN_MOTION_DDOT": 0}, "tle": {"line1": "1 27380U 02007A   25342.63192441 -.00000226  00000+0  00000+0 0  9994", "line2": "2 27380   6.4433  71.4765 0001612 211.5706 350.5417  1.00268358 87175"}}, "geometry": {"type": "Point", "coordinates": [-89.94482956566985, -2.0825432980514296]}}, {"type": "Feature", "properties": {"norad_id": 27426, "name": "DIRECTV 5 (TEMPO 1)", "group": "intelsat", "lat": 4.0110461240092095, "lon": -168.37929502125124, "alt_km": 35784.45636578496, "timestamp": "2025-12-09T14:52:25.833407+00:00", "meta": {"OBJECT_NAME": "DIRECTV 5 (TEMPO 1)", "OBJECT_ID": "2002-023A", "EPOCH": "2025-12-09T07:43:19.765920", "MEAN_MOTION": 1.00272011, "ECCENTRICITY": 0.00039115, "INCLINATION": 4.3936, "RA_OF_ASC_NODE": 77.6915, "ARG_OF_PERICENTER": 200.425, "MEAN_ANOMALY": 165.9142, "EPHEMERIS_TYPE": 0, "CLASSIFICATION_TYPE": "U", "NORAD_CAT_ID": 27426, "ELEMENT_SET_NO": 999, "REV_AT_EPOCH": 8622, "BSTAR": 0, "MEAN_MOTION_DOT": -5.6e-07, "MEAN_MOTION_DDOT": 0}, "tle": {"line1": "1 27426U 02023A   25343.32175655 -.00000056  00000+0  00000+0 0  9999", "line2": "2 27426   4.3936  77.6915 0003911 200.4250 165.9142  1.00272011 86220"}}, "geometry": {"type": "Point", "coordinates": [-168.37929502125124, 4.0110461240092095]}}, {"type": "Feature", "properties": {"norad_id": 27438, "name": "INTELSAT 905 (IS-905)", "group": "intelsat", "lat": 6.276771555813852, "lon": 164.49514753650328, "alt_km": 35787.11291931602, "timestamp": "2025-12-09T14:52:25.833421+00:00", "meta": {"OBJECT_NAME": "INTELSAT 905 (IS-905)", "OBJECT_ID": "2002-027A", "EPOCH": "2025-12-09T06:41:55.708800", "MEAN_MOTION": 1.002717, "ECCENTRICITY": 0.00028585, "INCLINATION": 6.2772, "RA_OF_ASC_NODE": 72.0945, "ARG_OF_PERICENTER": 191.2196, "MEAN_ANOMALY": 138.2332, "EPHEMERIS_TYPE": 0, "CLASSIFICATION_TYPE": "U", "NORAD_CAT_ID": 27438, "ELEMENT_SET_NO": 999, "REV_AT_EPOCH": 4945, "BSTAR": 0, "MEAN_MOTION_DOT": 9.5e-07, "MEAN_MOTION_DDOT": 0}, "tle": {"line1": "1 27438U 02027A   25343.27911700  .00000095  00000+0  00000+0 0  9991", "line2": "2 27438   6.2772  72.0945 0002858 191.2196 138.2332  1.00271700 49451"}}, "geometry": {"type": "Point", "coordinates": [164.49514753650328, 6.276771555813852]}}, {"type": "Feature", "properties": {"norad_id": 27445, "name": "GALAXY 3C (G-3C)", "group": "intelsat", "lat": 2.6107678579782645, "lon": -153.09612134481006, "alt_km": 35781.84626219259, "timestamp": "2025-12-09T14:52:25.833433+00:00", "meta": {"OBJECT_NAME": "GALAXY 3C (G-3C)", "OBJECT_ID": "2002-030A", "EPOCH": "2025-12-09T07:04:13.029600", "MEAN_MOTION": 1.00270961, "ECCENTRICITY": 0.00011103, "INCLINATION": 3.2558, "RA_OF_ASC_NODE": 80.5395, "ARG_OF_PERICENTER": 98.9628, "MEAN_ANOMALY": 269.9771, "EPHEMERIS_TYPE": 0, "CLASSIFICATION_TYPE": "U", "NORAD_CAT_ID": 27445, "ELEMENT_SET_NO": 999, "REV_AT_EPOCH": 4459, "BSTAR": 0, "MEAN_MOTION_DOT": -1.51e-06, "MEAN_MOTION_DDOT": 0}, "tle": {"line1": "1 27445U 02030A   25343.29459525 -.00000151  00000+0  00000+0 0  9991", "line2": "2 27445   3.2558  80.5395 0001110  98.9628 269.9771  1.00270961 44591"}}, "geometry": {"type": "Point", "coordinates": [-153.09612134481006, 2.6107678579782645]}}, {"type": "Feature", "properties": {"norad_id": 27513, "name": "INTELSAT 906 (IS-906)", "group": "intelsat", "lat": -4.974010010360421, "lon": 6.003457007853211, "alt_km": 35791.72697276017, "timestamp": "2025-12-09T14:52:25.833446+00:00", "meta": {"OBJECT_NAME": "INTELSAT 906 (IS-906)", "OBJECT_ID": "2002-041A", "EPOCH": "2025-12-09T05:19:04.029024", "MEAN_MOTION": 1.00270918, "ECCENTRICITY": 0.00061012, "INCLINATION": 5.3199, "RA_OF_ASC_NODE": 75.2733, "ARG_OF_PERICENTER": 190.0162, "MEAN_ANOMALY": 316.8281, "EPHEMERIS_TYPE": 0, "CLASSIFICATION_TYPE": "U", "NORAD_CAT_ID": 27513, "ELEMENT_SET_NO": 999, "REV_AT_EPOCH": 8512, "BSTAR": 0, "MEAN_MOTION_DOT": 1.4e-07, "MEAN_MOTION_DDOT": 0}, "tle": {"line1": "1 27513U 02041A   25343.22157441  .00000014  00000+0  00000+0 0  9991", "line2": "2 27513   5.3199  75.2733 0006101 190.0162 316.8281  1.00270918 85124"}}, "geometry": {"type": "Point", "coordinates": [6.003457007853211, -4.974010010360421]}}, {"type": "Feature", "properties": {"norad_id": 27954, "name": "GALAXY 13 (HORIZONS-1)", "group": "intelsat", "lat": 0.846025110151893, "lon": 151.69084967452207, "alt_km": 35787.4346063917, "timestamp": "2025-12-09T14:52:25.833458+00:00", "meta": {"OBJECT_NAME": "GALAXY 13 (HORIZONS-1)", "OBJECT_ID": "2003-044A", "EPOCH": "2025-12-09T07:32:02.391648", "MEAN_MOTION": 1.00270009, "ECCENTRICITY": 0.00020207, "INCLINATION": 0.9266, "RA_OF_ASC_NODE": 86.5145, "ARG_OF_PERICENTER": 161.8029, "MEAN_ANOMALY": 153.0042, "EPHEMERIS_TYPE": 0, "CLASSIFICATION_TYPE": "U", "NORAD_CAT_ID": 27954, "ELEMENT_SET_NO": 999, "REV_AT_EPOCH": 4466, "BSTAR": 0, "MEAN_MOTION_DOT": 1.35e-06, "MEAN_MOTION_DDOT": 0}, "tle": {"line1": "1 27954U 03044A   25343.31391657  .00000135  00000+0  00000+0 0  9997", "line2": "2 27954   0.9266  86.5145 0002020 161.8029 153.0042  1.00270009 44666"}}, "geometry": {"type": "Point", "coordinates": [151.69084967452207, 0.846025110151893]}}, {"type": "Feature", "properties": {"norad_id": 28358, "name": "INTELSAT 10-02", "group": "intelsat", "lat": -0.032632738327373706, "lon": -59.26033120219317, "alt_km": 35780.55398091614, "timestamp": "2025-12-09T14:52:25.833471+00:00", "meta": {"OBJECT_NAME": "INTELSAT 10-02", "OBJECT_ID": "2004-022A", "EPOCH": "2025-12-09T01:35:02.641920", "MEAN_MOTION": 1.00271862, "ECCENTRICITY": 0.00013053, "INCLINATION": 0.0316, "RA_OF_ASC_NODE": 71.7414, "ARG_OF_PERICENTER": 224.3866, "MEAN_ANOMALY": 164.7209, "EPHEMERIS_TYPE": 0, "CLASSIFICATION_TYPE": "U", "NORAD_CAT_ID": 28358, "ELEMENT_SET_NO": 999, "REV_AT_EPOCH": 7865, "BSTAR": 0, "MEAN_MOTION_DOT": -9e-08, "MEAN_MOTION_DDOT": 0}, "tle": {"line1": "1 28358U 04022A   25343.06600280 -.00000009  00000+0  00000+0 0  9991", "line2": "2 28358   0.0316  71.7414 0001305 224.3866 164.7209  1.00271862 78654"}}, "geometry": {"type": "Point", "coordinates": [-59.26033120219317, -0.032632738327373706]}}, {"type": "Feature", "properties": {"norad_id": 28626, "name": "XM-3 (RHYTHM)", "group": "intelsat", "lat": -0.00847594310748229, "lon": 70.86300675123552, "alt_km": 36159.26071675043, "timestamp": "2025-12-09T14:52:25.833484+00:00", "meta": {"OBJECT_NAME": "XM-3 (RHYTHM)", "OBJECT_ID": "2005-008A", "EPOCH": "2025-12-09T05:38:09.699936", "MEAN_MOTION": 0.98953822, "ECCENTRICITY": 0.00013638, "INCLINATION": 0.1657, "RA_OF_ASC_NODE": 81.1858, "ARG_OF_PERICENTER": 264.1685, "MEAN_ANOMALY": 308.3763, "EPHEMERIS_TYPE": 0, "CLASSIFICATION_TYPE": "U", "NORAD_CAT_ID": 28626, "ELEMENT_SET_NO": 999, "REV_AT_EPOCH": 4071, "BSTAR": 0, "MEAN_MOTION_DOT": -2.44e-06, "MEAN_MOTION_DDOT": 0}, "tle": {"line1": "1 28626U 05008A   25343.23483449 -.00000244  00000+0  00000+0 0  9990", "line2": "2 28626   0.1657  81.1858 0001363 264.1685 308.3763  0.98953822 40719"}}, "geometry": {"type": "Point", "coordinates": [70.86300675123552, -0.00847594310748229]}}]}